{
  "norad_id": 58408,
  "name": "STARLINK-30906",
  "history": [
    {
      "epoch": "2026-04-14T14:23:29.181984Z",
      "apogee_km": 486.49405994316385,
      "perigee_km": 484.57909501504855,
      "latitude_deg": 2.5775166789364847e-05,
      "longitude_deg": 154.7075877143569,
      "height_km": 485.2732410259156,
      "semi_major_axis_km": 6863.673577479106,
      "eccentricity": 0.0001395,
      "inclination_deg": 43.0036,
      "raan_deg": 213.3529,
      "arg_perigee_deg": 272.4254,
      "mean_anomaly_deg": 87.6438,
      "mean_motion_rev_day": 15.26749654
    },
    {
      "epoch": "2026-04-15T13:56:37.026240Z",
      "apogee_km": 486.75227776871725,
      "perigee_km": 484.41449460518197,
      "latitude_deg": -8.68332343363642e-06,
      "longitude_deg": 154.9232147180074,
      "height_km": 485.1575161367572,
      "semi_major_axis_km": 6863.720386186949,
      "eccentricity": 0.0001703,
      "inclination_deg": 43.0037,
      "raan_deg": 207.8185,
      "arg_perigee_deg": 280.0172,
      "mean_anomaly_deg": 80.0487,
      "mean_motion_rev_day": 15.26734036
    },
    {
      "epoch": "2026-04-16T13:29:43.633248Z",
      "apogee_km": 486.4925468522124,
      "perigee_km": 484.59268033517037,
      "latitude_deg": -2.4191903386580304e-05,
      "longitude_deg": 155.14383137669364,
      "height_km": 485.2347941466844,
      "semi_major_axis_km": 6863.679613593691,
      "eccentricity": 0.0001384,
      "inclination_deg": 43.0027,
      "raan_deg": 202.2839,
      "arg_perigee_deg": 275.1277,
      "mean_anomaly_deg": 84.9416,
      "mean_motion_rev_day": 15.2674764
    },
    {
      "epoch": "2026-04-17T22:28:07.660992Z",
      "apogee_km": 486.6033203414454,
      "perigee_km": 484.6144813292194,
      "latitude_deg": -2.792509589322147e-05,
      "longitude_deg": 11.439946709104937,
      "height_km": 485.19373278455834,
      "semi_major_axis_km": 6863.745900835333,
      "eccentricity": 0.00014488,
      "inclination_deg": 43.0032,
      "raan_deg": 194.5343,
      "arg_perigee_deg": 281.1535,
      "mean_anomaly_deg": 78.9153,
      "mean_motion_rev_day": 15.26725523
    },
    {
      "epoch": "2026-04-18T12:35:58.616736Z",
      "apogee_km": 486.190882932754,
      "perigee_km": 484.8892552133748,
      "latitude_deg": 6.728342218672696e-06,
      "longitude_deg": 155.57733593227806,
      "height_km": 485.2700161053709,
      "semi_major_axis_km": 6863.677069073065,
      "eccentricity": 9.482e-05,
      "inclination_deg": 43.0002,
      "raan_deg": 191.2143,
      "arg_perigee_deg": 274.095,
      "mean_anomaly_deg": 85.9793,
      "mean_motion_rev_day": 15.26748489
    },
    {
      "epoch": "2026-04-19T13:43:18.094080Z",
      "apogee_km": 486.6083401900505,
      "perigee_km": 484.4956967101725,
      "latitude_deg": -6.585792934513987e-06,
      "longitude_deg": 131.80983836815508,
      "height_km": 485.20929692425847,
      "semi_major_axis_km": 6863.689018450112,
      "eccentricity": 0.0001539,
      "inclination_deg": 43.0031,
      "raan_deg": 185.3097,
      "arg_perigee_deg": 276.5216,
      "mean_anomaly_deg": 83.546,
      "mean_motion_rev_day": 15.26744502
    },
    {
      "epoch": "2026-04-20T05:25:23.509056Z",
      "apogee_km": 486.46632505728576,
      "perigee_km": 484.64470106431963,
      "latitude_deg": -1.0417882868818662e-05,
      "longitude_deg": -108.04766701965492,
      "height_km": 485.2317507246515,
      "semi_major_axis_km": 6863.692513060802,
      "eccentricity": 0.0001327,
      "inclination_deg": 43.0012,
      "raan_deg": 181.6196,
      "arg_perigee_deg": 276.3431,
      "mean_anomaly_deg": 83.7269,
      "mean_motion_rev_day": 15.26743336
    },
    {
      "epoch": "2026-04-21T20:40:33.680352Z",
      "apogee_km": 486.43945257002997,
      "perigee_km": 484.5354831426466,
      "latitude_deg": -3.2811555466952546e-05,
      "longitude_deg": 12.323568479642006,
      "height_km": 485.2910579718749,
      "semi_major_axis_km": 6863.624467856338,
      "eccentricity": 0.0001387,
      "inclination_deg": 43.0036,
      "raan_deg": 172.3953,
      "arg_perigee_deg": 268.4098,
      "mean_anomaly_deg": 91.6594,
      "mean_motion_rev_day": 15.2676604
    },
    {
      "epoch": "2026-04-22T15:31:04.886112Z",
      "apogee_km": 486.80295074662536,
      "perigee_km": 484.3388796050767,
      "latitude_deg": -1.4047770488976436e-05,
      "longitude_deg": 84.48944904533754,
      "height_km": 485.2588829218786,
      "semi_major_axis_km": 6863.707915175851,
      "eccentricity": 0.0001795,
      "inclination_deg": 43.0053,
      "raan_deg": 167.965,
      "arg_perigee_deg": 274.1768,
      "mean_anomaly_deg": 85.8878,
      "mean_motion_rev_day": 15.26738197
    },
    {
      "epoch": "2026-04-23T10:21:34.284384Z",
      "apogee_km": 486.4954723995934,
      "perigee_km": 484.6023305542476,
      "latitude_deg": 1.3881884123066458e-05,
      "longitude_deg": 156.66749151091867,
      "height_km": 485.2502117072461,
      "semi_major_axis_km": 6863.68590147692,
      "eccentricity": 0.00013791,
      "inclination_deg": 43.0033,
      "raan_deg": 163.5393,
      "arg_perigee_deg": 274.5949,
      "mean_anomaly_deg": 85.4745,
      "mean_motion_rev_day": 15.26745542
    },
    {
      "epoch": "2026-04-24T11:28:54.931584Z",
      "apogee_km": 486.52405653068854,
      "perigee_km": 484.684573858216,
      "latitude_deg": -2.0230931515252824e-06,
      "longitude_deg": 132.89600272104894,
      "height_km": 485.19187681852014,
      "semi_major_axis_km": 6863.741315194452,
      "eccentricity": 0.000134,
      "inclination_deg": 43.0029,
      "raan_deg": 157.6356,
      "arg_perigee_deg": 281.8902,
      "mean_anomaly_deg": 78.1799,
      "mean_motion_rev_day": 15.26727053
    },
    {
      "epoch": "2026-04-25T18:53:04.615008Z",
      "apogee_km": 486.5492390239915,
      "perigee_km": 484.5862194714273,
      "latitude_deg": 7.752222000345835e-07,
      "longitude_deg": 13.185994943616306,
      "height_km": 485.26517666177904,
      "semi_major_axis_km": 6863.704729247709,
      "eccentricity": 0.000143,
      "inclination_deg": 43.0029,
      "raan_deg": 150.2556,
      "arg_perigee_deg": 274.6572,
      "mean_anomaly_deg": 85.4116,
      "mean_motion_rev_day": 15.2673926
    },
    {
      "epoch": "2026-04-26T18:26:11.096736Z",
      "apogee_km": 486.47568502523245,
      "perigee_km": 484.58886234189777,
      "latitude_deg": -3.327270208281601e-06,
      "longitude_deg": 13.406645706876366,
      "height_km": 485.190940710692,
      "semi_major_axis_km": 6863.669273683565,
      "eccentricity": 0.00013745,
      "inclination_deg": 43.0028,
      "raan_deg": 144.7205,
      "arg_perigee_deg": 277.2107,
      "mean_anomaly_deg": 82.8588,
      "mean_motion_rev_day": 15.2675109
    },
    {
      "epoch": "2026-04-27T17:59:18.039840Z",
      "apogee_km": 486.4631895891025,
      "perigee_km": 484.5647037372564,
      "latitude_deg": 4.6307940833411404e-05,
      "longitude_deg": 13.625726441271645,
      "height_km": 485.2157224062634,
      "semi_major_axis_km": 6863.65094666318,
      "eccentricity": 0.0001383,
      "inclination_deg": 43.002,
      "raan_deg": 139.1857,
      "arg_perigee_deg": 274.5449,
      "mean_anomaly_deg": 85.5245,
      "mean_motion_rev_day": 15.26757205
    },
    {
      "epoch": "2026-04-28T17:32:26.677248Z",
      "apogee_km": 486.51015567855393,
      "perigee_km": 484.643225554707,
      "latitude_deg": 1.2027208592833275e-05,
      "longitude_deg": 13.83763874014566,
      "height_km": 485.2920395806915,
      "semi_major_axis_km": 6863.713690616631,
      "eccentricity": 0.000136,
      "inclination_deg": 43.0036,
      "raan_deg": 133.6509,
      "arg_perigee_deg": 273.7966,
      "mean_anomaly_deg": 86.273,
      "mean_motion_rev_day": 15.2673627
    },
    {
      "epoch": "2026-04-29T12:22:56.345088Z",
      "apogee_km": 486.3950516105724,
      "perigee_km": 484.7450164395923,
      "latitude_deg": -4.342974410007884e-05,
      "longitude_deg": 86.01266796259179,
      "height_km": 485.3269840639714,
      "semi_major_axis_km": 6863.707034025082,
      "eccentricity": 0.0001202,
      "inclination_deg": 43.0033,
      "raan_deg": 129.2234,
      "arg_perigee_deg": 271.3921,
      "mean_anomaly_deg": 88.6792,
      "mean_motion_rev_day": 15.26738491
    },
    {
      "epoch": "2026-04-30T11:56:03.501600Z",
      "apogee_km": 486.4353068759501,
      "perigee_km": 484.7066133891112,
      "latitude_deg": 4.131697140128729e-05,
      "longitude_deg": 86.23079364608392,
      "height_km": 485.2853027256967,
      "semi_major_axis_km": 6863.70796013253,
      "eccentricity": 0.00012593,
      "inclination_deg": 43.0033,
      "raan_deg": 123.6885,
      "arg_perigee_deg": 274.1595,
      "mean_anomaly_deg": 85.9113,
      "mean_motion_rev_day": 15.26738182
    },
    {
      "epoch": "2026-05-02T11:01:21.285696Z",
      "apogee_km": 484.38255991899496,
      "perigee_km": 482.1553475464134,
      "latitude_deg": 2.634806755213939e-05,
      "longitude_deg": 86.8992280108471,
      "height_km": 482.81531380801005,
      "semi_major_axis_km": 6861.405953732704,
      "eccentricity": 0.0001623,
      "inclination_deg": 43.0023,
      "raan_deg": 112.6149,
      "arg_perigee_deg": 281.9609,
      "mean_anomaly_deg": 78.1061,
      "mean_motion_rev_day": 15.27506579
    },
    {
      "epoch": "2026-05-03T20:00:01.999008Z",
      "apogee_km": 484.0148382249381,
      "perigee_km": 482.23365480534267,
      "latitude_deg": 3.7739989188914245,
      "longitude_deg": -52.852708924485306,
      "height_km": 482.75278815686875,
      "semi_major_axis_km": 6861.26124651514,
      "eccentricity": 0.0001298,
      "inclination_deg": 43.0016,
      "raan_deg": 104.8533,
      "arg_perigee_deg": 258.3467,
      "mean_anomaly_deg": 107.2291,
      "mean_motion_rev_day": 15.27554903
    }
  ]
}